OBJECT_NAME,OBJECT_ID,EPOCH,MEAN_MOTION,ECCENTRICITY,INCLINATION,RA_OF_ASC_NODE,ARG_OF_PERICENTER,MEAN_ANOMALY,EPHEMERIS_TYPE,CLASSIFICATION_TYPE,NORAD_CAT_ID,ELEMENT_SET_NO,REV_AT_EPOCH,BSTAR,MEAN_MOTION_DOT,MEAN_MOTION_DDOT
GLOBALSTAR M069,2007-020C,2026-07-18T21:08:37.345920,12.23472343,.0001537,52.0011,162.4190,217.7382,166.5826,0,U,31573,999,88268,.19067E-3,-.72E-6,0
GLOBALSTAR M072,2007-020D,2026-07-18T20:37:49.356192,11.91658811,.0001657,51.9949,15.9248,42.3071,97.2196,0,U,31574,999,87875,.10856E-4,-.83E-6,0
GLOBALSTAR M066,2007-048C,2026-07-18T18:45:51.592896,12.30389915,.0005552,51.9611,327.2145,108.9165,56.2792,0,U,32265,999,86411,.47372E-3,-.39E-6,0
GLOBALSTAR M079,2010-054A,2026-07-18T19:41:08.425824,12.62266405,.0001128,52.0054,12.3741,83.7009,24.5000,0,U,37188,999,72654,-.25975E-4,-.108E-5,0
GLOBALSTAR M074,2010-054B,2026-07-18T12:19:41.187360,12.62262064,.000086,52.0034,12.5681,98.2672,296.1009,0,U,37189,999,72711,-.23623429E-4,-.108E-5,0
GLOBALSTAR M076,2010-054C,2026-07-18T21:17:13.433856,12.62262528,.0001098,52.0048,11.6376,97.6610,73.7248,0,U,37190,999,72687,.65446E-4,-.92E-6,0
GLOBALSTAR M077,2010-054D,2026-07-18T16:51:01.190304,11.67547264,.0002202,51.9961,99.3059,231.6265,142.4542,0,U,37191,999,72482,-.41263E-3,-.1E-5,0
GLOBALSTAR M075,2010-054E,2026-07-18T20:45:18.153216,12.62267882,.0000778,51.9955,53.7414,70.4833,300.7164,0,U,37192,999,72594,.16805E-4,-.101E-5,0
GLOBALSTAR M073,2010-054F,2026-07-18T19:38:22.740864,12.62266940,.0001023,52.0081,328.0085,101.5931,56.6217,0,U,37193,999,72792,.51589E-4,-.95E-6,0
GLOBALSTAR M083,2011-033A,2026-07-18T16:11:03.198048,12.62264302,.0000709,51.9859,276.6336,109.6278,55.2759,0,U,37739,999,69692,.11369E-3,-.83E-6,0
GLOBALSTAR M088,2011-033B,2026-07-18T17:29:35.104992,12.62269480,.0000104,52.0189,182.9693,44.9161,126.6719,0,U,37740,999,69247,-.50044E-4,-.113E-5,0
GLOBALSTAR M091,2011-033C,2026-07-18T20:47:53.801952,12.62264247,.0000511,51.9985,145.4687,31.0171,347.2313,0,U,37741,999,69328,.46736E-4,-.95E-6,0
GLOBALSTAR M085,2011-033D,2026-07-18T16:40:44.385024,12.62264423,.0000848,52.0127,97.3113,46.7197,331.2121,0,U,37742,999,69377,.11916E-3,-.82E-6,0
GLOBALSTAR M081,2011-033E,2026-07-18T17:18:56.613312,12.62265329,.0000734,51.9958,99.6306,59.1865,319.2313,0,U,37743,999,69392,.90795E-4,-.88E-6,0
GLOBALSTAR M089,2011-033F,2026-07-18T18:34:50.993184,12.62267618,.0000713,51.9940,53.6227,92.7993,346.4037,0,U,37744,999,69477,.20903E-4,-.1E-5,0
GLOBALSTAR M084,2011-080A,2026-07-18T17:29:46.188384,12.62263620,.0000756,52.0015,281.2602,135.0336,38.4577,0,U,38040,999,67274,.10179E-3,-.86E-6,0
GLOBALSTAR M080,2011-080B,2026-07-18T06:27:32.350752,12.62257576,.00002974,52.0065,284.3895,76.7380,295.7039,0,U,38041,999,67281,.12419676E-3,-.82E-6,0
GLOBALSTAR M082,2011-080C,2026-07-18T13:19:40.835136,12.62264316,.00001831,52.0056,239.0219,67.5911,96.0739,0,U,38042,999,67355,.34249653E-4,-.98E-6,0
GLOBALSTAR M092,2011-080D,2026-07-18T18:24:19.186272,12.62267869,.0000747,52.0105,328.7754,108.7229,56.1496,0,U,38043,999,67203,.10429E-3,-.85E-6,0
GLOBALSTAR M090,2011-080E,2026-07-18T19:42:30.384000,12.62269594,.0000397,52.0099,232.1784,85.4112,85.7541,0,U,38044,999,67370,.13926E-4,-.101E-5,0
GLOBALSTAR M086,2011-080F,2026-07-18T14:32:38.118336,12.62287862,.0001452,51.9875,232.7109,116.6179,60.1664,0,U,38045,999,67362,-.12888E-4,-.106E-5,0
GLOBALSTAR M097,2013-005A,2026-07-18T14:22:29.113248,12.62271325,.0000506,52.0030,147.7145,43.0635,317.0271,0,U,39072,999,62087,-.10927E-4,-.106E-5,0
GLOBALSTAR M093,2013-005B,2026-07-18T19:26:02.298912,12.62266353,.0000739,52.0095,140.4321,49.7550,310.3382,0,U,39073,999,62085,.65161E-4,-.92E-6,0
GLOBALSTAR M094,2013-005C,2026-07-18T19:25:50.083680,12.62264224,.0001032,51.9969,54.5185,68.3429,291.7548,0,U,39074,999,62246,.37439E-4,-.97E-6,0
GLOBALSTAR M096,2013-005D,2026-07-18T17:51:17.102016,12.62265789,.0000812,52.0075,103.5445,49.1103,310.9834,0,U,39075,999,62137,.11975E-3,-.82E-6,0
GLOBALSTAR M078,2013-005E,2026-07-18T03:54:25.558848,12.62260116,.00009057,51.9845,189.2810,346.9844,13.0999,0,U,39076,999,61992,-.10464476E-3,-.123E-5,0
GLOBALSTAR M095,2013-005F,2026-07-18T15:56:59.260992,12.62264083,.0000545,52.0053,185.4009,19.0354,341.0533,0,U,39077,999,61984,-.93177E-4,-.12E-5,0
GLOBALSTAR M087,2022-064A,2026-07-18T18:09:52.330752,12.62269384,.0000899,52.0016,326.3411,88.7530,271.3439,0,U,52888,999,19512,.81459E-4,-.89E-6,0
